[{"OBJECT_NAME":"STARLINK-3310","OBJECT_ID":"2022-001AJ","EPOCH":"2026-03-09T13:45:09.156096","MEAN_MOTION":15.08839732,"ECCENTRICITY":0.0001412,"INCLINATION":53.2173,"RA_OF_ASC_NODE":179.7632,"ARG_OF_PERICENTER":72.1711,"MEAN_ANOMALY":287.9435,"EPHEMERIS_TYPE":0,"CLASSIFICATION_TYPE":"U","NORAD_CAT_ID":50835,"ELEMENT_SET_NO":999,"REV_AT_EPOCH":23024,"BSTAR":3.0092e-5,"MEAN_MOTION_DOT":1.91e-6,"MEAN_MOTION_DDOT":0},{"OBJECT_NAME":"FENGYUN 1C DEB","OBJECT_ID":"1999-025EMJ","EPOCH":"2026-03-09T03:39:09.279936","MEAN_MOTION":15.01174269,"ECCENTRICITY":0.00472088,"INCLINATION":98.7318,"RA_OF_ASC_NODE":38.98,"ARG_OF_PERICENTER":180.721,"MEAN_ANOMALY":242.109,"EPHEMERIS_TYPE":0,"CLASSIFICATION_TYPE":"U","NORAD_CAT_ID":37717,"ELEMENT_SET_NO":999,"REV_AT_EPOCH":90691,"BSTAR":0.0034859906,"MEAN_MOTION_DOT":0.00045969,"MEAN_MOTION_DDOT":0}]
